MOLNIYA 2-9             
1 07276U 74026A   15080.80280087  .00005446 -40802-7  37196-3 0  9998
2 07276  62.4678 332.0350 7181666 278.6363  12.8975  2.43687585184578
MOLNIYA 2-10            
1 07376U 74056A   15079.97387354 -.00000612  00000-0  12522-2 0  9997
2 07376  61.5938  79.7701 7464029 279.3976  10.8213  2.00598354297204
MOLNIYA 1-S             
1 07392U 74060A   15078.79008098 -.00000378  00000-0  00000+0 0  9998
2 07392  10.5053 316.6632 0011525 148.2258 104.5431  1.00273492 92971
MOLNIYA 1-29            
1 07780U 75036A   15079.51882723 -.00000248  00000-0 -13521-2 0  9991
2 07780  61.7899 257.3793 7363018 260.8854  17.1760  2.00685579292569
MOLNIYA 2-13            
1 08015U 75063A   15080.91214383 -.00001612  00000-0 -80144-3 0  9992
2 08015  61.8926 262.9592 7396275 256.2507  18.8250  2.00841163290920
MOLNIYA 2-14            
1 08195U 75081A   15077.97921971  .00000551  00000-0  85926-3 0  9993
2 08195  61.4990 232.2136 7366215 262.0590  16.7242  2.00538126289623
MOLNIYA 3-3             
1 08425U 75105A   15080.01380084 -.00000369  00000-0 -92847-3 0  9998
2 08425  61.5197 257.7702 7412450 252.8825  20.2617  2.00688429288314
MOLNIYA 1-32            
1 08601U 76006A   15078.30890678  .00001467  00000-0  64583-3 0  9993
2 08601  62.7224 328.5523 7377859 260.4803  17.3273  1.99959390286055
MOLNIYA 2-17            
1 09829U 77010A   15079.26131483 -.00002144  00000-0  00000+0 0  9994
2 09829  62.9672 358.4952 7350640 246.3294  24.7246  2.00468869279201
MOLNIYA 1-36            
1 09880U 77021A   15080.11131651 -.00001648  00000-0  10351-3 0  9998
2 09880  62.3922 324.1555 7424103 255.7843  18.7772  2.00628348176381
MOLNIYA 3-7             
1 09941U 77032A   15078.70006707 -.00000993  00000-0 -49131-3 0  9994
2 09941  62.5248 333.2655 7409545 248.8656  22.4508  2.00567385277645
MOLNIYA 3-8             
1 10455U 77105A   15079.87890008 -.00000699  00000-0 -12085-3 0  9992
2 10455  62.9619  33.8221 7379226 259.4069  17.8112  2.00845549273997
MOLNIYA 1-40            
1 10925U 78055A   15078.54241917  .00001015  00000-0  41703-2 0  9990
2 10925  62.5900  67.1578 7352866 262.8928  16.6547  2.00588229269607
MOLNIYA 1-42            
1 11007U 78080A   15076.13739460  .00005655  00000-0  98025-3 0  9992
2 11007  62.3762 101.5263 7259643 255.3939  20.7448  2.31889588288079
MOLNIYA 3-10            
1 11057U 78095A   15078.80732841  .00000188  00000-0  92042-3 0  9994
2 11057  62.5166 180.5646 7042581 260.2948  20.5748  2.34205076291557
MOLNIYA 1-44            
1 11474U 79070A   15080.94666537  .00120969  14986-5  81049-3 0  9995
2 11474  62.0983 242.0906 2483426 230.2479 301.5849 10.59930722470320
MOLNIYA 3-13            
1 11896U 80063A   15078.26439784  .00000112  00000-0  00000+0 0  9999
2 11896  62.8202 160.3681 7113938 262.6379  18.8629  2.00604527254033
MOLNIYA 1-49            
1 12156U 81009A   15080.27175556  .00000071  00000-0  00000+0 0  9992
2 12156  64.5609 165.1249 6604648 256.5830 131.9721  2.05697488167117
MOLNIYA 1-52            
1 13012U 81123A   15080.37742325 -.00000963  00000-0 -16731+0 0  9996
2 13012  64.5020 232.2570 6564741 265.3903  27.1808  2.00641932243583
MOLNIYA 1-53            
1 13070U 82015A   15079.98389362 -.00000397  00000-0 -12975-1 0  9993
2 13070  62.7476 249.3386 7174553 261.4707  16.9326  2.00645579242170
MOLNIYA 3-20            
1 13875U 83015A   15077.06220174 -.00001193  00000-0 -30888-2 0  9998
2 13875  64.1571 312.1354 6979488 269.0041 344.0392  2.00651407170628
MOLNIYA 1-56            
1 13890U 83019A   15080.15829940  .00001255  00000-0  00000+0 0  9996
2 13890  63.9456 353.6212 7134911 266.8112 220.6429  1.99858626233737
MOLNIYA 1-62            
1 15214U 84089A   15080.38790712 -.00000497  00000-0  12687-2 0  9990
2 15214  63.8111  31.6122 7280056 262.2445 199.8799  1.97958152191902
MOLNIYA 1-63            
1 15429U 84124A   15080.35172315 -.00001162  00000-0  00000+0 0  9991
2 15429  63.5473  89.9659 6841093 275.8739 296.8919  2.00680922221748
MOLNIYA 3-24            
1 15738U 85040A   15079.75786079  .00000116  00000-0 -10880-1 0  9999
2 15738  64.4176 144.8604 6336647 275.9595 226.7478  2.55629468236271
MOLNIYA 3-27            
1 16393U 85117A   15078.79827442  .00000021  00000-0  87269-2 0  9995
2 16393  64.4370  14.0018 6877797 282.6909  15.1592  2.12398821217985
MOLNIYA 1-69            
1 17078U 86089A   15078.74493271  .00000027  00000-0  16006-1 0  9995
2 17078  63.7179 114.9395 6826246 278.7698 259.4194  2.00657774207721
MOLNIYA 3-31            
1 17328U 87008A   15080.31969955 -.00000008  00000-0  12818-2 0  9996
2 17328  63.9162  63.0321 6980751 275.9597 250.1139  2.00677169202839
MOLNIYA 1-71            
1 18946U 88017A   15080.31321700 -.00000235  00000-0 -38641-2 0  9999
2 18946  63.8225  77.7344 7015346 273.2443 227.6934  2.00625063198037
MOLNIYA 1-75            
1 19807U 89014A   15075.57360362  .00000000  00000-0  10000-3 0  9991
2 19807  63.4670 226.3770 6965436 282.8930  13.0016  2.00304132190951
MOLNIYA 1-80            
1 21118U 91012A   15079.51136888 -.00000378  00000-0  11636-2 0  9996
2 21118  62.6084 296.5906 7371169 288.0385   9.7543  2.05236160176700
MOLNIYA 3-40            
1 21196U 91022A   15080.63941506 -.00000009  00000-0 -21616-3 0  9991
2 21196  62.8612 279.1188 7324156 289.2670   9.3351  2.03023640175974
MOLNIYA 1-81            
1 21426U 91043A   15081.09452141 -.00000118  00000-0 -34879-2 0  9998
2 21426  63.2699 294.1331 7242333 283.7904 344.6060  2.00633574174108
MOLNIYA 3-41            
1 21706U 91065A   15080.12095376 -.00000010  00000-0  26900-1 0  9994
2 21706  63.7034 116.6134 6931130 280.3502 117.8148  2.04346255172872
MOLNIYA 3-42            
1 22178U 92067A   15079.34858631  .00000134  00000-0  61250-2 0  9998
2 22178  63.0409 204.2507 7014209 288.9462 120.7656  2.20433302166195
MOLNIYA 1-86            
1 22671U 93035A   15081.19747177  .00003168  00000-0  83479-3 0  9998
2 22671  62.9082 341.6239 4979293 321.3367 283.2658  5.61431817203514
MOLNIYA 1-87            
1 22949U 93079A   15080.27915667 -.00001108  00000-0  11406-2 0  9996
2 22949  61.6420  97.8196 7434998 273.4828 270.0136  2.00458868155714
MOLNIYA 1-88            
1 23420U 94081A   15080.32755224  .00000262  00000-0  37397-3 0  9999
2 23420  62.7401 151.1141 6365676 295.1582  13.3397  3.34479745158464
MOLNIYA 3-47            
1 23642U 95042A   15079.46273712  .00000088  00000-0  11340-2 0  9998
2 23642  61.9801  74.2498 7464976 274.1203 347.0177  2.00684892143714
MOLNIYA 1-90            
1 24960U 97054A   15080.07377974 -.00000177  00000-0  15380-2 0  9999
2 24960  61.9792 104.4276 7436873 273.7973  12.4093  2.04788316128679
MOLNIYA 1-91            
1 25485U 98054A   15080.95319113 -.00000487  00000-0  84768-3 0  9992
2 25485  61.9784 244.8788 7368773 261.8001  11.4182  2.00653624120717
MOLNIYA 3-50            
1 25847U 99036A   15077.85135639 -.00000222  00000-0 -35483-3 0  9997
2 25847  62.9410  15.1642 7378706 258.9001  18.0264  2.00609502114991
MOLNIYA 3-51            
1 26867U 01030A   15079.74817755  .00004365  00000-0  93220-3 0  9996
2 26867  62.5083 240.6186 7099428 260.4374 196.5676  2.51524460102009
MOLNIYA 1-93            
1 28163U 04005A   15079.91088528  .00000110  00000-0  25519-3 0  9999
2 28163  63.9898  34.7342 7471541 244.0195  24.7471  2.00652484 81210
